[{"OBJECT_NAME":"STARLINK-30817","OBJECT_ID":"2023-171J","EPOCH":"2026-03-09T22:00:01.999584","MEAN_MOTION":15.24788853,"ECCENTRICITY":0.00015098,"INCLINATION":42.9994,"RA_OF_ASC_NODE":283.8758,"ARG_OF_PERICENTER":257.9455,"MEAN_ANOMALY":332.124,"EPHEMERIS_TYPE":0,"CLASSIFICATION_TYPE":"U","NORAD_CAT_ID":58238,"ELEMENT_SET_NO":999,"REV_AT_EPOCH":578,"BSTAR":0.060806816,"MEAN_MOTION_DOT":0.01706436,"MEAN_MOTION_DDOT":0},{"OBJECT_NAME":"CZ-4B R\/B","OBJECT_ID":"2004-035C","EPOCH":"2026-03-09T23:23:31.358400","MEAN_MOTION":15.2906998,"ECCENTRICITY":0.00309852,"INCLINATION":97.3501,"RA_OF_ASC_NODE":103.2135,"ARG_OF_PERICENTER":330.5139,"MEAN_ANOMALY":29.4353,"EPHEMERIS_TYPE":0,"CLASSIFICATION_TYPE":"U","NORAD_CAT_ID":28415,"ELEMENT_SET_NO":999,"REV_AT_EPOCH":17995,"BSTAR":0.00034109099,"MEAN_MOTION_DOT":9.691e-5,"MEAN_MOTION_DDOT":0}]
